GSAT0101 (PRN E11)      
1 37846U 11060A   17084.33057239  .00000019  00000-0  00000-0 0  9998
2 37846  55.7648  74.0578 0005423 320.5190  39.4551  1.70473713 33657
GSAT0102 (PRN E12)      
1 37847U 11060B   17083.94221410  .00000019  00000-0  00000-0 0  9999
2 37847  55.7654  74.0680 0006610 306.6713 217.6884  1.70475932 33771
GSAT0103 (PRN E19)      
1 38857U 12055A   17084.37463084 -.00000007  00000-0  00000-0 0  9997
2 38857  54.9116 194.3516 0003502 227.0129 132.9416  1.70473646 27699
GSAT0104 (PRN E20)      
1 38858U 12055B   17080.20288136 -.00000004  00000-0  00000-0 0  9996
2 38858  54.9126 194.4659 0002326 219.0113 140.9578  1.70473747 27574
GSAT0201 (PRN E18)      
1 40128U 14050A   17084.51371318 -.00000037  00000-0  00000-0 0  9995
2 40128  50.2627  48.5663 1616019  60.5765 314.5553  1.85519143 15812
GSAT0202 (PRN E14)      
1 40129U 14050B   17084.78165237 -.00000040  00000-0  00000-0 0  9990
2 40129  50.3170  47.5493 1616673  61.6158 313.6988  1.85519748 17951
GSAT0203 (PRN E26)      
1 40544U 15017A   17084.11292837  .00000019  00000-0  00000-0 0  9994
2 40544  55.5536  74.3665 0004358 267.7290  92.2363  1.70475262 11733
GSAT0204 (PRN E22)      
1 40545U 15017B   17083.30949666  .00000019  00000-0  00000-0 0  9994
2 40545  55.5593  74.3999 0001967 262.7742  97.2212  1.70475484 12383
GSAT0205 (PRN E24)      
1 40889U 15045A   17079.44279231 -.00000030  00000-0  00000-0 0  9994
2 40889  57.0760 314.5438 0004282  15.1404 344.9222  1.70474628  9469
GSAT0206 (PRN E30)      
1 40890U 15045B   17083.76888434 -.00000010  00000-0  00000-0 0  9995
2 40890  57.0721 314.4234 0002644  20.1861 339.8857  1.70474600  9562
GSAT0209 (PRN E09)      
1 41174U 15079A   17082.18142717 -.00000006  00000-0  00000-0 0  9995
2 41174  54.9244 194.0989 0004164 282.8860  77.0507  1.70474103  7444
GSAT0208 (PRN E08)      
1 41175U 15079B   17082.40137098 -.00000007  00000-0  00000-0 0  9998
2 41175  54.9227 194.0941 0003238 279.1238  80.8225  1.70474144  7863
GSAT0211 (PRN E02)      
1 41549U 16030A   17084.28082223 -.00000008  00000-0  00000-0 0  9999
2 41549  57.2100 314.1464 0002574 330.0590  29.9888  1.70474332  5191
GSAT0210 (PRN E01)      
1 41550U 16030B   17083.40090969 -.00000011  00000-0  00000-0 0  9994
2 41550  57.2119 314.1722 0001223 293.6276  66.4200  1.70474442  5179
GSAT0207 (PRN E07)      
1 41859U 16069A   17082.47517923 -.00000007  00000-0  00000-0 0  9993
2 41859  54.5845 194.7518 0003995 267.3160  92.6200  1.70474045  2133
GSAT0212 (PRN E03)      
1 41860U 16069B   17082.32853571 -.00000007  00000-0  00000-0 0  9991
2 41860  54.5821 194.7570 0002793 284.0377  75.9131  1.70474000  2158
GSAT0213 (PRN E04)      
1 41861U 16069C   17080.34880848 -.00000005  00000-0  00000-0 0  9997
2 41861  54.5849 194.8141 0003342 236.5787 123.3744  1.70473940  2129
GSAT0214 (PRN E05)      
1 41862U 16069D   17082.25517061 -.00000007  00000-0  00000-0 0  9996
2 41862  54.5827 194.7577 0002680 236.3645 123.5918  1.70474129  2140
